{
  "norad_id": 37868,
  "name": "COSMOS 2477 [GLONASS-M]",
  "history": [
    {
      "epoch": "2026-03-28T06:08:40.087392",
      "apogee_km": 19185.958102732027,
      "perigee_km": 19073.702639924286,
      "latitude_deg": -41.398710153610075,
      "longitude_deg": 151.3778748800978,
      "semi_major_axis_km": 25507.967371328155,
      "eccentricity": 0.0022004,
      "inclination_deg": 65.2312,
      "raan_deg": 75.6808,
      "arg_perigee_deg": 243.8544,
      "mean_anomaly_deg": 293.4081,
      "mean_motion_rev_day": 2.13102715
    }
  ]
}